{
  "type": "FeatureCollection",
  "features": [
    {
      "type": "Feature",
      "properties": {
        "norad_id": 40545,
        "name": "GSAT0204 (GALILEO 8)",
        "group": "gnss",
        "lat": 42.78182823800119,
        "lon": 129.55346057958783,
        "alt_km": 23230.277249927545,
        "timestamp": "2025-12-10T04:57:29.860713+00:00",
        "meta_object_name": "GSAT0204 (GALILEO 8)",
        "meta_object_id": "2015-017B",
        "meta_epoch": "2025-12-08T05:48:09.490464",
        "meta_mean_motion": 1.70475483,
        "meta_eccentricity": 0.00062708,
        "meta_inclination": 56.8542,
        "meta_ra_of_asc_node": 346.8204,
        "meta_arg_of_pericenter": 261.7403,
        "meta_mean_anomaly": 98.2059,
        "meta_ephemeris_type": 0,
        "meta_classification_type": "U",
        "meta_norad_cat_id": 40545,
        "meta_element_set_no": 999,
        "meta_rev_at_epoch": 2899,
        "meta_bstar": 0,
        "meta_mean_motion_dot": -8.6e-07,
        "meta_mean_motion_ddot": 0,
        "tle_line1": "1 40545U 15017B   25342.24177651 -.00000086  00000+0  00000+0 0  9994",
        "tle_line2": "2 40545  56.8542 346.8204 0006270 261.7403  98.2059  1.70475483 28995"
      },
      "geometry": {
        "type": "Point",
        "coordinates": [
          129.55346057958783,
          42.78182823800119
        ]
      }
    },
    {
      "type": "Feature",
      "properties": {
        "norad_id": 40549,
        "name": "BEIDOU-3S IGSO-1S (C31)",
        "group": "gnss",
        "lat": -35.61370534395132,
        "lon": -99.89499693767087,
        "alt_km": 35853.23668818314,
        "timestamp": "2025-12-10T04:57:29.860725+00:00",
        "meta_object_name": "BEIDOU-3S IGSO-1S (C31)",
        "meta_object_id": "2015-019A",
        "meta_epoch": "2025-12-07T20:38:38.671584",
        "meta_mean_motion": 1.00293516,
        "meta_eccentricity": 0.00368211,
        "meta_inclination": 49.562,
        "meta_ra_of_asc_node": 297.7693,
        "meta_arg_of_pericenter": 193.8977,
        "meta_mean_anomaly": 348.5751,
        "meta_ephemeris_type": 0,
        "meta_classification_type": "U",
        "meta_norad_cat_id": 40549,
        "meta_element_set_no": 999,
        "meta_rev_at_epoch": 3915,
        "meta_bstar": 0,
        "meta_mean_motion_dot": -1.86e-06,
        "meta_mean_motion_ddot": 0,
        "tle_line1": "1 40549U 15019A   25341.86016981 -.00000186  00000+0  00000+0 0  9996",
        "tle_line2": "2 40549  49.5620 297.7693 0036821 193.8977 348.5751  1.00293516 39155"
      },
      "geometry": {
        "type": "Point",
        "coordinates": [
          -99.89499693767087,
          -35.61370534395132
        ]
      }
    },
    {
      "type": "Feature",
      "properties": {
        "norad_id": 40730,
        "name": "GPS BIIF-10 (PRN 08)",
        "group": "gnss",
        "lat": -29.530189838657137,
        "lon": -109.29514080264468,
        "alt_km": 20054.754471175154,
        "timestamp": "2025-12-10T04:57:29.860749+00:00",
        "meta_object_name": "GPS BIIF-10 (PRN 08)",
        "meta_object_id": "2015-033A",
        "meta_epoch": "2025-12-09T18:13:06.590784",
        "meta_mean_motion": 2.00565693,
        "meta_eccentricity": 0.0110767,
        "meta_inclination": 54.1333,
        "meta_ra_of_asc_node": 274.8955,
        "meta_arg_of_pericenter": 26.7373,
        "meta_mean_anomaly": 333.8474,
        "meta_ephemeris_type": 0,
        "meta_classification_type": "U",
        "meta_norad_cat_id": 40730,
        "meta_element_set_no": 999,
        "meta_rev_at_epoch": 7619,
        "meta_bstar": 0,
        "meta_mean_motion_dot": -5.4e-07,
        "meta_mean_motion_ddot": 0,
        "tle_line1": "1 40730U 15033A   25343.75910406 -.00000054  00000+0  00000+0 0  9993",
        "tle_line2": "2 40730  54.1333 274.8955 0110767  26.7373 333.8474  2.00565693 76196"
      },
      "geometry": {
        "type": "Point",
        "coordinates": [
          -109.29514080264468,
          -29.530189838657137
        ]
      }
    },
    {
      "type": "Feature",
      "properties": {
        "norad_id": 40748,
        "name": "BEIDOU-3S M2S (C58)",
        "group": "gnss",
        "lat": -51.8978328818808,
        "lon": -114.53513173389169,
        "alt_km": 21501.038074451408,
        "timestamp": "2025-12-10T04:57:29.860774+00:00",
        "meta_object_name": "BEIDOU-3S M2S (C58)",
        "meta_object_id": "2015-037A",
        "meta_epoch": "2025-12-09T05:49:19.735392",
        "meta_mean_motion": 1.86228936,
        "meta_eccentricity": 0.00124384,
        "meta_inclination": 55.042,
        "meta_ra_of_asc_node": 308.5839,
        "meta_arg_of_pericenter": 267.3919,
        "meta_mean_anomaly": 92.4547,
        "meta_ephemeris_type": 0,
        "meta_classification_type": "U",
        "meta_norad_cat_id": 40748,
        "meta_element_set_no": 999,
        "meta_rev_at_epoch": 7058,
        "meta_bstar": 0,
        "meta_mean_motion_dot": -7.5e-07,
        "meta_mean_motion_ddot": 0,
        "tle_line1": "1 40748U 15037A   25343.24258953 -.00000075  00000+0  00000+0 0  9995",
        "tle_line2": "2 40748  55.0420 308.5839 0012438 267.3919  92.4547  1.86228936 70588"
      },
      "geometry": {
        "type": "Point",
        "coordinates": [
          -114.53513173389169,
          -51.8978328818808
        ]
      }
    },
    {
      "type": "Feature",
      "properties": {
        "norad_id": 40749,
        "name": "BEIDOU-3S M1S (C57)",
        "group": "gnss",
        "lat": 37.64133756820722,
        "lon": 95.8884560758574,
        "alt_km": 21527.829281644103,
        "timestamp": "2025-12-10T04:57:29.860793+00:00",
        "meta_object_name": "BEIDOU-3S M1S (C57)",
        "meta_object_id": "2015-037B",
        "meta_epoch": "2025-12-08T22:28:18.289056",
        "meta_mean_motion": 1.86253835,
        "meta_eccentricity": 0.0003421,
        "meta_inclination": 55.0388,
        "meta_ra_of_asc_node": 308.5837,
        "meta_arg_of_pericenter": 357.7489,
        "meta_mean_anomaly": 2.238,
        "meta_ephemeris_type": 0,
        "meta_classification_type": "U",
        "meta_norad_cat_id": 40749,
        "meta_element_set_no": 999,
        "meta_rev_at_epoch": 7058,
        "meta_bstar": 0,
        "meta_mean_motion_dot": -7.4e-07,
        "meta_mean_motion_ddot": 0,
        "tle_line1": "1 40749U 15037B   25342.93632279 -.00000074  00000+0  00000+0 0  9997",
        "tle_line2": "2 40749  55.0388 308.5837 0003421 357.7489   2.2380  1.86253835 70588"
      },
      "geometry": {
        "type": "Point",
        "coordinates": [
          95.8884560758574,
          37.64133756820722
        ]
      }
    },
    {
      "type": "Feature",
      "properties": {
        "norad_id": 40889,
        "name": "GSAT0205 (GALILEO 9)",
        "group": "gnss",
        "lat": -54.95740586525463,
        "lon": 133.2467699672377,
        "alt_km": 23239.81228451386,
        "timestamp": "2025-12-10T04:57:29.860806+00:00",
        "meta_object_name": "GSAT0205 (GALILEO 9)",
        "meta_object_id": "2015-045A",
        "meta_epoch": "2025-12-06T20:05:28.161600",
        "meta_mean_motion": 1.70472973,
        "meta_eccentricity": 0.00059315,
        "meta_inclination": 55.0055,
        "meta_ra_of_asc_node": 226.9215,
        "meta_arg_of_pericenter": 39.3036,
        "meta_mean_anomaly": 320.836,
        "meta_ephemeris_type": 0,
        "meta_classification_type": "U",
        "meta_norad_cat_id": 40889,
        "meta_element_set_no": 999,
        "meta_rev_at_epoch": 6373,
        "meta_bstar": 0,
        "meta_mean_motion_dot": 2.8e-07,
        "meta_mean_motion_ddot": 0,
        "tle_line1": "1 40889U 15045A   25340.83713150  .00000028  00000+0  00000+0 0  9994",
        "tle_line2": "2 40889  55.0055 226.9215 0005931  39.3036 320.8360  1.70472973 63731"
      },
      "geometry": {
        "type": "Point",
        "coordinates": [
          133.2467699672377,
          -54.95740586525463
        ]
      }
    },
    {
      "type": "Feature",
      "properties": {
        "norad_id": 40890,
        "name": "GSAT0206 (GALILEO 10)",
        "group": "gnss",
        "lat": 37.07467944785795,
        "lon": 14.901428063164493,
        "alt_km": 23219.772228440313,
        "timestamp": "2025-12-10T04:57:29.860824+00:00",
        "meta_object_name": "GSAT0206 (GALILEO 10)",
        "meta_object_id": "2015-045B",
        "meta_epoch": "2025-12-08T05:32:31.943328",
        "meta_mean_motion": 1.70473105,
        "meta_eccentricity": 0.0003529,
        "meta_inclination": 55.0039,
        "meta_ra_of_asc_node": 226.878,
        "meta_arg_of_pericenter": 31.5182,
        "meta_mean_anomaly": 328.5941,
        "meta_ephemeris_type": 0,
        "meta_classification_type": "U",
        "meta_norad_cat_id": 40890,
        "meta_element_set_no": 999,
        "meta_rev_at_epoch": 6378,
        "meta_bstar": 0,
        "meta_mean_motion_dot": 1.8e-07,
        "meta_mean_motion_ddot": 0,
        "tle_line1": "1 40890U 15045B   25342.23092527  .00000018  00000+0  00000+0 0  9999",
        "tle_line2": "2 40890  55.0039 226.8780 0003529  31.5182 328.5941  1.70473105 63781"
      },
      "geometry": {
        "type": "Point",
        "coordinates": [
          14.901428063164493,
          37.07467944785795
        ]
      }
    }
  ]
}